<?xml version="1.0" encoding="UTF-8"?>
<ndm xmlns:xsi="http://www.w3.org/2001/XMLSchema-instance" xsi:noNamespaceSchemaLocation="https://sanaregistry.org/r/ndmxml_unqualified/ndmxml-2.0.0-master-2.0.xsd">
<omm id="CCSDS_OMM_VERS" version="2.0">
<header><CREATION_DATE/><ORIGINATOR/></header><body><segment><metadata><OBJECT_NAME>ONEWEB-0588</OBJECT_NAME><OBJECT_ID>2023-004P</OBJECT_ID><CENTER_NAME>EARTH</CENTER_NAME><REF_FRAME>TEME</REF_FRAME><TIME_SYSTEM>UTC</TIME_SYSTEM><MEAN_ELEMENT_THEORY>SGP4</MEAN_ELEMENT_THEORY></metadata><data><meanElements><EPOCH>2026-01-26T07:04:10.075584</EPOCH><MEAN_MOTION>13.18686138</MEAN_MOTION><ECCENTRICITY>.00021365</ECCENTRICITY><INCLINATION>87.9190</INCLINATION><RA_OF_ASC_NODE>3.6504</RA_OF_ASC_NODE><ARG_OF_PERICENTER>94.6448</ARG_OF_PERICENTER><MEAN_ANOMALY>265.4928</MEAN_ANOMALY></meanElements><tleParameters><EPHEMERIS_TYPE>0</EPHEMERIS_TYPE><CLASSIFICATION_TYPE>U</CLASSIFICATION_TYPE><NORAD_CAT_ID>55153</NORAD_CAT_ID><ELEMENT_SET_NO>999</ELEMENT_SET_NO><REV_AT_EPOCH>15099</REV_AT_EPOCH><BSTAR>.96831255E-4</BSTAR><MEAN_MOTION_DOT>.51E-6</MEAN_MOTION_DOT><MEAN_MOTION_DDOT>0</MEAN_MOTION_DDOT></tleParameters></data></segment></body></omm>
<omm id="CCSDS_OMM_VERS" version="2.0">
<header><CREATION_DATE/><ORIGINATOR/></header><body><segment><metadata><OBJECT_NAME>ONEWEB-0598</OBJECT_NAME><OBJECT_ID>2023-004Q</OBJECT_ID><CENTER_NAME>EARTH</CENTER_NAME><REF_FRAME>TEME</REF_FRAME><TIME_SYSTEM>UTC</TIME_SYSTEM><MEAN_ELEMENT_THEORY>SGP4</MEAN_ELEMENT_THEORY></metadata><data><meanElements><EPOCH>2026-01-25T11:38:49.181280</EPOCH><MEAN_MOTION>13.11418583</MEAN_MOTION><ECCENTRICITY>.00014184</ECCENTRICITY><INCLINATION>87.8813</INCLINATION><RA_OF_ASC_NODE>49.4753</RA_OF_ASC_NODE><ARG_OF_PERICENTER>111.2591</ARG_OF_PERICENTER><MEAN_ANOMALY>248.8689</MEAN_ANOMALY></meanElements><tleParameters><EPHEMERIS_TYPE>0</EPHEMERIS_TYPE><CLASSIFICATION_TYPE>U</CLASSIFICATION_TYPE><NORAD_CAT_ID>55154</NORAD_CAT_ID><ELEMENT_SET_NO>999</ELEMENT_SET_NO><REV_AT_EPOCH>14719</REV_AT_EPOCH><BSTAR>-.12312673E-2</BSTAR><MEAN_MOTION_DOT>-.424E-5</MEAN_MOTION_DOT><MEAN_MOTION_DDOT>0</MEAN_MOTION_DDOT></tleParameters></data></segment></body></omm>
<omm id="CCSDS_OMM_VERS" version="2.0">
<header><CREATION_DATE/><ORIGINATOR/></header><body><segment><metadata><OBJECT_NAME>ONEWEB-0599</OBJECT_NAME><OBJECT_ID>2023-004R</OBJECT_ID><CENTER_NAME>EARTH</CENTER_NAME><REF_FRAME>TEME</REF_FRAME><TIME_SYSTEM>UTC</TIME_SYSTEM><MEAN_ELEMENT_THEORY>SGP4</MEAN_ELEMENT_THEORY></metadata><data><meanElements><EPOCH>2026-01-26T06:02:58.136928</EPOCH><MEAN_MOTION>13.17651809</MEAN_MOTION><ECCENTRICITY>.00015594</ECCENTRICITY><INCLINATION>87.9084</INCLINATION><RA_OF_ASC_NODE>34.0717</RA_OF_ASC_NODE><ARG_OF_PERICENTER>91.1431</ARG_OF_PERICENTER><MEAN_ANOMALY>268.9879</MEAN_ANOMALY></meanElements><tleParameters><EPHEMERIS_TYPE>0</EPHEMERIS_TYPE><CLASSIFICATION_TYPE>U</CLASSIFICATION_TYPE><NORAD_CAT_ID>55155</NORAD_CAT_ID><ELEMENT_SET_NO>999</ELEMENT_SET_NO><REV_AT_EPOCH>14879</REV_AT_EPOCH><BSTAR>-.69675528E-4</BSTAR><MEAN_MOTION_DOT>-.14E-6</MEAN_MOTION_DOT><MEAN_MOTION_DDOT>0</MEAN_MOTION_DDOT></tleParameters></data></segment></body></omm>
<omm id="CCSDS_OMM_VERS" version="2.0">
<header><CREATION_DATE/><ORIGINATOR/></header><body><segment><metadata><OBJECT_NAME>ONEWEB-0614</OBJECT_NAME><OBJECT_ID>2023-004S</OBJECT_ID><CENTER_NAME>EARTH</CENTER_NAME><REF_FRAME>TEME</REF_FRAME><TIME_SYSTEM>UTC</TIME_SYSTEM><MEAN_ELEMENT_THEORY>SGP4</MEAN_ELEMENT_THEORY></metadata><data><meanElements><EPOCH>2026-01-26T02:10:26.245056</EPOCH><MEAN_MOTION>13.11417602</MEAN_MOTION><ECCENTRICITY>.00021771</ECCENTRICITY><INCLINATION>87.8813</INCLINATION><RA_OF_ASC_NODE>49.3633</RA_OF_ASC_NODE><ARG_OF_PERICENTER>92.4443</ARG_OF_PERICENTER><MEAN_ANOMALY>267.6934</MEAN_ANOMALY></meanElements><tleParameters><EPHEMERIS_TYPE>0</EPHEMERIS_TYPE><CLASSIFICATION_TYPE>U</CLASSIFICATION_TYPE><NORAD_CAT_ID>55156</NORAD_CAT_ID><ELEMENT_SET_NO>999</ELEMENT_SET_NO><REV_AT_EPOCH>14721</REV_AT_EPOCH><BSTAR>-.15538101E-2</BSTAR><MEAN_MOTION_DOT>-.538E-5</MEAN_MOTION_DOT><MEAN_MOTION_DDOT>0</MEAN_MOTION_DDOT></tleParameters></data></segment></body></omm>
<omm id="CCSDS_OMM_VERS" version="2.0">
<header><CREATION_DATE/><ORIGINATOR/></header><body><segment><metadata><OBJECT_NAME>ONEWEB-0616</OBJECT_NAME><OBJECT_ID>2023-004T</OBJECT_ID><CENTER_NAME>EARTH</CENTER_NAME><REF_FRAME>TEME</REF_FRAME><TIME_SYSTEM>UTC</TIME_SYSTEM><MEAN_ELEMENT_THEORY>SGP4</MEAN_ELEMENT_THEORY></metadata><data><meanElements><EPOCH>2026-01-26T01:35:41.380224</EPOCH><MEAN_MOTION>13.17650249</MEAN_MOTION><ECCENTRICITY>.00011339</ECCENTRICITY><INCLINATION>87.9089</INCLINATION><RA_OF_ASC_NODE>34.1050</RA_OF_ASC_NODE><ARG_OF_PERICENTER>60.7089</ARG_OF_PERICENTER><MEAN_ANOMALY>299.4155</MEAN_ANOMALY></meanElements><tleParameters><EPHEMERIS_TYPE>0</EPHEMERIS_TYPE><CLASSIFICATION_TYPE>U</CLASSIFICATION_TYPE><NORAD_CAT_ID>55157</NORAD_CAT_ID><ELEMENT_SET_NO>999</ELEMENT_SET_NO><REV_AT_EPOCH>14898</REV_AT_EPOCH><BSTAR>.10533727E-3</BSTAR><MEAN_MOTION_DOT>.54E-6</MEAN_MOTION_DOT><MEAN_MOTION_DDOT>0</MEAN_MOTION_DDOT></tleParameters></data></segment></body></omm>
<omm id="CCSDS_OMM_VERS" version="2.0">
<header><CREATION_DATE/><ORIGINATOR/></header><body><segment><metadata><OBJECT_NAME>ONEWEB-0617</OBJECT_NAME><OBJECT_ID>2023-004U</OBJECT_ID><CENTER_NAME>EARTH</CENTER_NAME><REF_FRAME>TEME</REF_FRAME><TIME_SYSTEM>UTC</TIME_SYSTEM><MEAN_ELEMENT_THEORY>SGP4</MEAN_ELEMENT_THEORY></metadata><data><meanElements><EPOCH>2026-01-26T03:43:12.964224</EPOCH><MEAN_MOTION>13.11416240</MEAN_MOTION><ECCENTRICITY>.00021166</ECCENTRICITY><INCLINATION>87.8814</INCLINATION><RA_OF_ASC_NODE>49.3318</RA_OF_ASC_NODE><ARG_OF_PERICENTER>99.6788</ARG_OF_PERICENTER><MEAN_ANOMALY>260.4579</MEAN_ANOMALY></meanElements><tleParameters><EPHEMERIS_TYPE>0</EPHEMERIS_TYPE><CLASSIFICATION_TYPE>U</CLASSIFICATION_TYPE><NORAD_CAT_ID>55158</NORAD_CAT_ID><ELEMENT_SET_NO>999</ELEMENT_SET_NO><REV_AT_EPOCH>14724</REV_AT_EPOCH><BSTAR>-.1097395E-2</BSTAR><MEAN_MOTION_DOT>-.376E-5</MEAN_MOTION_DOT><MEAN_MOTION_DDOT>0</MEAN_MOTION_DDOT></tleParameters></data></segment></body></omm>
<omm id="CCSDS_OMM_VERS" version="2.0">
<header><CREATION_DATE/><ORIGINATOR/></header><body><segment><metadata><OBJECT_NAME>ONEWEB-0618</OBJECT_NAME><OBJECT_ID>2023-004V</OBJECT_ID><CENTER_NAME>EARTH</CENTER_NAME><REF_FRAME>TEME</REF_FRAME><TIME_SYSTEM>UTC</TIME_SYSTEM><MEAN_ELEMENT_THEORY>SGP4</MEAN_ELEMENT_THEORY></metadata><data><meanElements><EPOCH>2026-01-25T12:50:44.316096</EPOCH><MEAN_MOTION>15.11421177</MEAN_MOTION><ECCENTRICITY>.00150675</ECCENTRICITY><INCLINATION>86.9035</INCLINATION><RA_OF_ASC_NODE>235.4880</RA_OF_ASC_NODE><ARG_OF_PERICENTER>100.7098</ARG_OF_PERICENTER><MEAN_ANOMALY>259.5838</MEAN_ANOMALY></meanElements><tleParameters><EPHEMERIS_TYPE>0</EPHEMERIS_TYPE><CLASSIFICATION_TYPE>U</CLASSIFICATION_TYPE><NORAD_CAT_ID>55159</NORAD_CAT_ID><ELEMENT_SET_NO>999</ELEMENT_SET_NO><REV_AT_EPOCH>16070</REV_AT_EPOCH><BSTAR>.45350824E-3</BSTAR><MEAN_MOTION_DOT>.7712E-4</MEAN_MOTION_DOT><MEAN_MOTION_DDOT>0</MEAN_MOTION_DDOT></tleParameters></data></segment></body></omm>
<omm id="CCSDS_OMM_VERS" version="2.0">
<header><CREATION_DATE/><ORIGINATOR/></header><body><segment><metadata><OBJECT_NAME>ONEWEB-0619</OBJECT_NAME><OBJECT_ID>2023-004W</OBJECT_ID><CENTER_NAME>EARTH</CENTER_NAME><REF_FRAME>TEME</REF_FRAME><TIME_SYSTEM>UTC</TIME_SYSTEM><MEAN_ELEMENT_THEORY>SGP4</MEAN_ELEMENT_THEORY></metadata><data><meanElements><EPOCH>2026-01-26T02:21:52.408800</EPOCH><MEAN_MOTION>13.17649277</MEAN_MOTION><ECCENTRICITY>.00019995</ECCENTRICITY><INCLINATION>87.9094</INCLINATION><RA_OF_ASC_NODE>34.0717</RA_OF_ASC_NODE><ARG_OF_PERICENTER>77.8357</ARG_OF_PERICENTER><MEAN_ANOMALY>282.2999</MEAN_ANOMALY></meanElements><tleParameters><EPHEMERIS_TYPE>0</EPHEMERIS_TYPE><CLASSIFICATION_TYPE>U</CLASSIFICATION_TYPE><NORAD_CAT_ID>55160</NORAD_CAT_ID><ELEMENT_SET_NO>999</ELEMENT_SET_NO><REV_AT_EPOCH>14888</REV_AT_EPOCH><BSTAR>-.71103397E-4</BSTAR><MEAN_MOTION_DOT>-.15E-6</MEAN_MOTION_DOT><MEAN_MOTION_DDOT>0</MEAN_MOTION_DDOT></tleParameters></data></segment></body></omm>

</ndm>
