ONEWEB-0588             
1 55153U 23004P   26026.29456106  .00000051  00000+0  96831-4 0  9993
2 55153  87.9190   3.6504 0002136  94.6448 265.4928 13.18686138150995
ONEWEB-0598             
1 55154U 23004Q   26025.48529145 -.00000424  00000+0 -12313-2 0  9995
2 55154  87.8813  49.4753 0001418 111.2591 248.8689 13.11418583147195
ONEWEB-0599             
1 55155U 23004R   26026.25206177 -.00000014  00000+0 -69676-4 0  9990
2 55155  87.9084  34.0717 0001559  91.1431 268.9879 13.17651809148799
ONEWEB-0614             
1 55156U 23004S   26026.09058154 -.00000538  00000+0 -15538-2 0  9990
2 55156  87.8813  49.3633 0002177  92.4443 267.6934 13.11417602147218
ONEWEB-0616             
1 55157U 23004T   26026.06645116  .00000054  00000+0  10534-3 0  9991
2 55157  87.9089  34.1050 0001133  60.7089 299.4155 13.17650249148980
ONEWEB-0617             
1 55158U 23004U   26026.15501116 -.00000376  00000+0 -10974-2 0  9999
2 55158  87.8814  49.3318 0002116  99.6788 260.4579 13.11416240147241
ONEWEB-0618             
1 55159U 23004V   26025.53523514  .00007712  00000+0  45351-3 0  9994
2 55159  86.9035 235.4880 0015067 100.7098 259.5838 15.11421177160706
ONEWEB-0619             
1 55160U 23004W   26026.09852325 -.00000015  00000+0 -71103-4 0  9999
2 55160  87.9094  34.0717 0001999  77.8357 282.2999 13.17649277148880
